[{"OBJECT_NAME":"QPS-SAR-5 (TSUKUYOMI-I)","OBJECT_ID":"2023-196A","EPOCH":"2026-03-09T21:54:21.440160","MEAN_MOTION":15.20129575,"ECCENTRICITY":0.00250737,"INCLINATION":42.0101,"RA_OF_ASC_NODE":220.2642,"ARG_OF_PERICENTER":332.3475,"MEAN_ANOMALY":27.6024,"EPHEMERIS_TYPE":0,"CLASSIFICATION_TYPE":"U","NORAD_CAT_ID":58578,"ELEMENT_SET_NO":999,"REV_AT_EPOCH":12312,"BSTAR":0.00079111792,"MEAN_MOTION_DOT":0.00017399,"MEAN_MOTION_DDOT":0},{"OBJECT_NAME":"STARLINK-31083","OBJECT_ID":"2023-211D","EPOCH":"2026-03-09T09:28:54.098112","MEAN_MOTION":15.27566918,"ECCENTRICITY":0.00012192,"INCLINATION":43.0009,"RA_OF_ASC_NODE":86.5899,"ARG_OF_PERICENTER":263.7661,"MEAN_ANOMALY":96.3052,"EPHEMERIS_TYPE":0,"CLASSIFICATION_TYPE":"U","NORAD_CAT_ID":58670,"ELEMENT_SET_NO":999,"REV_AT_EPOCH":12242,"BSTAR":-6.8275565e-5,"MEAN_MOTION_DOT":-2.14e-5,"MEAN_MOTION_DDOT":0}]
